{"type": "FeatureCollection", "features": [ {"type": "Feature", "properties": {"norad_id": 35142, "name": "FENGYUN 1C DEB", "group": "fengyun-1c-debris", "lat": -42.211925857485454, "lon": -21.43176332423595, "alt_km": 917.3710092115152, "timestamp": "2025-12-03T20:47:58.511666+00:00", "meta": {"OBJECT_NAME": "FENGYUN 1C DEB", "OBJECT_ID": "1999-025DLW", "EPOCH": "2025-12-01T11:02:09.839904", "MEAN_MOTION": 13.9049819, "ECCENTRICITY": 0.0107348, "INCLINATION": 99.0446, "RA_OF_ASC_NODE": 327.9188, "ARG_OF_PERICENTER": 244.9528, "MEAN_ANOMALY": 269.5822, "EPHEMERIS_TYPE": 0, "CLASSIFICATION_TYPE": "U", "NORAD_CAT_ID": 35142, "ELEMENT_SET_NO": 999, "REV_AT_EPOCH": 85532, "BSTAR": 0.00024065741, "MEAN_MOTION_DOT": 2.7e-06, "MEAN_MOTION_DDOT": 0}, "tle": {"line1": "1 35142U 99025DLW 25335.45983611  .00000270  00000+0  24066-3 0  9994", "line2": "2 35142  99.0446 327.9188 0107348 244.9528 269.5822 13.90498190855325"}}, "geometry": {"type": "Point", "coordinates": [-21.43176332423595, -42.211925857485454]}}, {"type": "Feature", "properties": {"norad_id": 35144, "name": "FENGYUN 1C DEB", "group": "fengyun-1c-debris", "lat": -10.991570566245969, "lon": -88.90846071724937, "alt_km": 718.9446399160925, "timestamp": "2025-12-03T20:47:58.511676+00:00", "meta": {"OBJECT_NAME": "FENGYUN 1C DEB", "OBJECT_ID": "1999-025DLY", "EPOCH": "2025-12-03T06:45:32.345568", "MEAN_MOTION": 14.58820087, "ECCENTRICITY": 0.0026407, "INCLINATION": 98.6983, "RA_OF_ASC_NODE": 92.1832, "ARG_OF_PERICENTER": 31.0808, "MEAN_ANOMALY": 329.1946, "EPHEMERIS_TYPE": 0, "CLASSIFICATION_TYPE": "U", "NORAD_CAT_ID": 35144, "ELEMENT_SET_NO": 999, "REV_AT_EPOCH": 65075, "BSTAR": 0.0033726, "MEAN_MOTION_DOT": 0.00015831, "MEAN_MOTION_DDOT": 0}, "tle": {"line1": "1 35144U 99025DLY 25337.28162437  .00015831  00000+0  33726-2 0  9995", "line2": "2 35144  98.6983  92.1832 0026407  31.0808 329.1946 14.58820087650756"}}, "geometry": {"type": "Point", "coordinates": [-88.90846071724937, -10.991570566245969]}}, {"type": "Feature", "properties": {"norad_id": 35147, "name": "FENGYUN 1C DEB", "group": "fengyun-1c-debris", "lat": -77.53386455010968, "lon": -179.49735191225858, "alt_km": 640.8062810915917, "timestamp": "2025-12-03T20:47:58.511687+00:00", "meta": {"OBJECT_NAME": "FENGYUN 1C DEB", "OBJECT_ID": "1999-025DMB", "EPOCH": "2025-12-02T22:25:52.541760", "MEAN_MOTION": 14.73679691, "ECCENTRICITY": 0.00276299, "INCLINATION": 99.4887, "RA_OF_ASC_NODE": 48.574, "ARG_OF_PERICENTER": 228.3561, "MEAN_ANOMALY": 131.5277, "EPHEMERIS_TYPE": 0, "CLASSIFICATION_TYPE": "U", "NORAD_CAT_ID": 35147, "ELEMENT_SET_NO": 999, "REV_AT_EPOCH": 74160, "BSTAR": 0.0044096521, "MEAN_MOTION_DOT": 0.00028999, "MEAN_MOTION_DDOT": 0}, "tle": {"line1": "1 35147U 99025DMB 25336.93463590  .00028999  00000+0  44097-2 0  9995", "line2": "2 35147  99.4887  48.5740 0027629 228.3561 131.5277 14.73679691741605"}}, "geometry": {"type": "Point", "coordinates": [-179.49735191225858, -77.53386455010968]}}, {"type": "Feature", "properties": {"norad_id": 35152, "name": "FENGYUN 1C DEB", "group": "fengyun-1c-debris", "lat": -45.737130515606005, "lon": -29.96236023858901, "alt_km": 1125.2063887258864, "timestamp": "2025-12-03T20:47:58.511697+00:00", "meta": {"OBJECT_NAME": "FENGYUN 1C DEB", "OBJECT_ID": "1999-025DMG", "EPOCH": "2025-11-30T18:26:10.864320", "MEAN_MOTION": 13.76409057, "ECCENTRICITY": 0.01949772, "INCLINATION": 99.8188, "RA_OF_ASC_NODE": 157.0773, "ARG_OF_PERICENTER": 46.4167, "MEAN_ANOMALY": 315.2982, "EPHEMERIS_TYPE": 0, "CLASSIFICATION_TYPE": "U", "NORAD_CAT_ID": 35152, "ELEMENT_SET_NO": 999, "REV_AT_EPOCH": 62028, "BSTAR": 0.00061954414, "MEAN_MOTION_DOT": 6.5e-06, "MEAN_MOTION_DDOT": 0}, "tle": {"line1": "1 35152U 99025DMG 25334.76818130  .00000650  00000+0  61954-3 0  9990", "line2": "2 35152  99.8188 157.0773 0194977  46.4167 315.2982 13.76409057620286"}}, "geometry": {"type": "Point", "coordinates": [-29.96236023858901, -45.737130515606005]}}, {"type": "Feature", "properties": {"norad_id": 35153, "name": "FENGYUN 1C DEB", "group": "fengyun-1c-debris", "lat": -44.59390927193952, "lon": 39.91466278247977, "alt_km": 704.2752014707739, "timestamp": "2025-12-03T20:47:58.511707+00:00", "meta": {"OBJECT_NAME": "FENGYUN 1C DEB", "OBJECT_ID": "1999-025DMH", "EPOCH": "2025-12-02T22:36:45.641952", "MEAN_MOTION": 14.73646675, "ECCENTRICITY": 0.01712747, "INCLINATION": 98.9026, "RA_OF_ASC_NODE": 227.7906, "ARG_OF_PERICENTER": 113.6101, "MEAN_ANOMALY": 248.3192, "EPHEMERIS_TYPE": 0, "CLASSIFICATION_TYPE": "U", "NORAD_CAT_ID": 35153, "ELEMENT_SET_NO": 999, "REV_AT_EPOCH": 97073, "BSTAR": 0.00043040739, "MEAN_MOTION_DOT": 3.48e-05, "MEAN_MOTION_DDOT": 0}, "tle": {"line1": "1 35153U 99025DMH 25336.94219493  .00003480  00000+0  43041-3 0  9991", "line2": "2 35153  98.9026 227.7906 0171274 113.6101 248.3192 14.73646675970735"}}, "geometry": {"type": "Point", "coordinates": [39.91466278247977, -44.59390927193952]}}, {"type": "Feature", "properties": {"norad_id": 35154, "name": "FENGYUN 1C DEB", "group": "fengyun-1c-debris", "lat": 60.66839063820356, "lon": -64.02285738634517, "alt_km": 739.3640861096637, "timestamp": "2025-12-03T20:47:58.511718+00:00", "meta": {"OBJECT_NAME": "FENGYUN 1C DEB", "OBJECT_ID": "1999-025DMJ", "EPOCH": "2025-12-03T01:38:45.524544", "MEAN_MOTION": 14.18874698, "ECCENTRICITY": 0.01796882, "INCLINATION": 99.4215, "RA_OF_ASC_NODE": 97.9418, "ARG_OF_PERICENTER": 69.6441, "MEAN_ANOMALY": 292.3936, "EPHEMERIS_TYPE": 0, "CLASSIFICATION_TYPE": "U", "NORAD_CAT_ID": 35154, "ELEMENT_SET_NO": 999, "REV_AT_EPOCH": 64440, "BSTAR": 0.00040648287, "MEAN_MOTION_DOT": 9.44e-06, "MEAN_MOTION_DDOT": 0}, "tle": {"line1": "1 35154U 99025DMJ 25337.06858246  .00000944  00000+0  40648-3 0  9993", "line2": "2 35154  99.4215  97.9418 0179688  69.6441 292.3936 14.18874698644405"}}, "geometry": {"type": "Point", "coordinates": [-64.02285738634517, 60.66839063820356]}}, {"type": "Feature", "properties": {"norad_id": 35155, "name": "FENGYUN 1C DEB", "group": "fengyun-1c-debris", "lat": -45.22773296257476, "lon": 161.22474685852802, "alt_km": 846.345368854918, "timestamp": "2025-12-03T20:47:58.511728+00:00", "meta": {"OBJECT_NAME": "FENGYUN 1C DEB", "OBJECT_ID": "1999-025DMK", "EPOCH": "2025-12-01T18:40:23.892384", "MEAN_MOTION": 14.19237116, "ECCENTRICITY": 0.00262936, "INCLINATION": 98.5005, "RA_OF_ASC_NODE": 347.8913, "ARG_OF_PERICENTER": 103.4458, "MEAN_ANOMALY": 256.9651, "EPHEMERIS_TYPE": 0, "CLASSIFICATION_TYPE": "U", "NORAD_CAT_ID": 35155, "ELEMENT_SET_NO": 999, "REV_AT_EPOCH": 72558, "BSTAR": 0.00064940785, "MEAN_MOTION_DOT": 1.325e-05, "MEAN_MOTION_DDOT": 0}, "tle": {"line1": "1 35155U 99025DMK 25335.77805431  .00001325  00000+0  64941-3 0  9994", "line2": "2 35155  98.5005 347.8913 0026293 103.4458 256.9651 14.19237116725586"}}, "geometry": {"type": "Point", "coordinates": [161.22474685852802, -45.22773296257476]}}, {"type": "Feature", "properties": {"norad_id": 35156, "name": "FENGYUN 1C DEB", "group": "fengyun-1c-debris", "lat": -41.271740569631085, "lon": 136.74997742952533, "alt_km": 846.5764765147933, "timestamp": "2025-12-03T20:47:58.511738+00:00", "meta": {"OBJECT_NAME": "FENGYUN 1C DEB", "OBJECT_ID": "1999-025DML", "EPOCH": "2025-12-03T09:32:20.618304", "MEAN_MOTION": 14.10610073, "ECCENTRICITY": 0.0036093, "INCLINATION": 98.7501, "RA_OF_ASC_NODE": 324.0617, "ARG_OF_PERICENTER": 174.1914, "MEAN_ANOMALY": 185.9683, "EPHEMERIS_TYPE": 0, "CLASSIFICATION_TYPE": "U", "NORAD_CAT_ID": 35156, "ELEMENT_SET_NO": 999, "REV_AT_EPOCH": 63912, "BSTAR": 0.00049263, "MEAN_MOTION_DOT": 8.41e-06, "MEAN_MOTION_DDOT": 0}, "tle": {"line1": "1 35156U 99025DML 25337.39746086  .00000841  00000+0  49263-3 0  9997", "line2": "2 35156  98.7501 324.0617 0036093 174.1914 185.9683 14.10610073639127"}}, "geometry": {"type": "Point", "coordinates": [136.74997742952533, -41.271740569631085]}}, {"type": "Feature", "properties": {"norad_id": 35159, "name": "FENGYUN 1C DEB", "group": "fengyun-1c-debris", "lat": -64.95737726276649, "lon": -146.7483486738142, "alt_km": 743.8212510963749, "timestamp": "2025-12-03T20:47:58.511749+00:00", "meta": {"OBJECT_NAME": "FENGYUN 1C DEB", "OBJECT_ID": "1999-025DMP", "EPOCH": "2025-11-29T04:26:18.851424", "MEAN_MOTION": 14.44874361, "ECCENTRICITY": 0.00122991, "INCLINATION": 98.8433, "RA_OF_ASC_NODE": 47.8452, "ARG_OF_PERICENTER": 209.872, "MEAN_ANOMALY": 177.7068, "EPHEMERIS_TYPE": 0, "CLASSIFICATION_TYPE": "U", "NORAD_CAT_ID": 35159, "ELEMENT_SET_NO": 999, "REV_AT_EPOCH": 61285, "BSTAR": 0.002158088, "MEAN_MOTION_DOT": 7.477e-05, "MEAN_MOTION_DDOT": 0}, "tle": {"line1": "1 35159U 99025DMP 25333.18494041  .00007477  00000+0  21581-2 0  9998", "line2": "2 35159  98.8433  47.8452 0012299 209.8720 177.7068 14.44874361612851"}}, "geometry": {"type": "Point", "coordinates": [-146.7483486738142, -64.95737726276649]}}, {"type": "Feature", "properties": {"norad_id": 35160, "name": "FENGYUN 1C DEB", "group": "fengyun-1c-debris", "lat": -74.53010105634169, "lon": -123.90065312047938, "alt_km": 654.7215728857464, "timestamp": "2025-12-03T20:47:58.511759+00:00", "meta": {"OBJECT_NAME": "FENGYUN 1C DEB", "OBJECT_ID": "1999-025DMQ", "EPOCH": "2025-12-03T01:11:51.484416", "MEAN_MOTION": 14.35912347, "ECCENTRICITY": 0.01758478, "INCLINATION": 99.1559, "RA_OF_ASC_NODE": 90.8757, "ARG_OF_PERICENTER": 267.796, "MEAN_ANOMALY": 90.308, "EPHEMERIS_TYPE": 0, "CLASSIFICATION_TYPE": "U", "NORAD_CAT_ID": 35160, "ELEMENT_SET_NO": 999, "REV_AT_EPOCH": 64792, "BSTAR": 0.00059114374, "MEAN_MOTION_DOT": 1.988e-05, "MEAN_MOTION_DDOT": 0}, "tle": {"line1": "1 35160U 99025DMQ 25337.04990144  .00001988  00000+0  59114-3 0  9999", "line2": "2 35160  99.1559  90.8757 0175847 267.7960  90.3080 14.35912347647927"}}, "geometry": {"type": "Point", "coordinates": [-123.90065312047938, -74.53010105634169]}}]}